[{"OBJECT_NAME":"ONEWEB-0141","OBJECT_ID":"2020-100AF","EPOCH":"2026-01-10T23:11:59.169984","MEAN_MOTION":13.1244043,"ECCENTRICITY":0.0001969,"INCLINATION":87.8924,"RA_OF_ASC_NODE":21.8642,"ARG_OF_PERICENTER":98.0487,"MEAN_ANOMALY":262.0865,"EPHEMERIS_TYPE":0,"CLASSIFICATION_TYPE":"U","NORAD_CAT_ID":47287,"ELEMENT_SET_NO":999,"REV_AT_EPOCH":24405,"BSTAR":-0.00093469982,"MEAN_MOTION_DOT":-3.24e-6,"MEAN_MOTION_DDOT":0},{"OBJECT_NAME":"ONEWEB-0142","OBJECT_ID":"2020-100AG","EPOCH":"2026-01-10T22:55:19.369056","MEAN_MOTION":13.12443309,"ECCENTRICITY":0.00017159,"INCLINATION":87.8925,"RA_OF_ASC_NODE":21.8906,"ARG_OF_PERICENTER":104.4698,"MEAN_ANOMALY":255.6621,"EPHEMERIS_TYPE":0,"CLASSIFICATION_TYPE":"U","NORAD_CAT_ID":47288,"ELEMENT_SET_NO":999,"REV_AT_EPOCH":24404,"BSTAR":8.4832613e-5,"MEAN_MOTION_DOT":4.3e-7,"MEAN_MOTION_DDOT":0},{"OBJECT_NAME":"ONEWEB-0143","OBJECT_ID":"2020-100AH","EPOCH":"2026-01-10T23:09:46.327392","MEAN_MOTION":13.12440995,"ECCENTRICITY":0.00017786,"INCLINATION":87.8925,"RA_OF_ASC_NODE":21.8843,"ARG_OF_PERICENTER":91.0121,"MEAN_ANOMALY":269.1211,"EPHEMERIS_TYPE":0,"CLASSIFICATION_TYPE":"U","NORAD_CAT_ID":47289,"ELEMENT_SET_NO":999,"REV_AT_EPOCH":24402,"BSTAR":-0.00091961497,"MEAN_MOTION_DOT":-3.18e-6,"MEAN_MOTION_DDOT":0},{"OBJECT_NAME":"ONEWEB-0144","OBJECT_ID":"2020-100AJ","EPOCH":"2026-01-10T22:28:16.853952","MEAN_MOTION":13.12444253,"ECCENTRICITY":0.00014524,"INCLINATION":87.8928,"RA_OF_ASC_NODE":21.8588,"ARG_OF_PERICENTER":98.6057,"MEAN_ANOMALY":261.5236,"EPHEMERIS_TYPE":0,"CLASSIFICATION_TYPE":"U","NORAD_CAT_ID":47290,"ELEMENT_SET_NO":999,"REV_AT_EPOCH":24394,"BSTAR":0.0011555523,"MEAN_MOTION_DOT":4.28e-6,"MEAN_MOTION_DDOT":0},{"OBJECT_NAME":"ONEWEB-0145","OBJECT_ID":"2020-100AK","EPOCH":"2026-01-10T23:36:34.796448","MEAN_MOTION":13.12443293,"ECCENTRICITY":0.00016934,"INCLINATION":87.8931,"RA_OF_ASC_NODE":21.8884,"ARG_OF_PERICENTER":92.8192,"MEAN_ANOMALY":267.3131,"EPHEMERIS_TYPE":0,"CLASSIFICATION_TYPE":"U","NORAD_CAT_ID":47291,"ELEMENT_SET_NO":999,"REV_AT_EPOCH":24414,"BSTAR":-0.00114456,"MEAN_MOTION_DOT":-3.99e-6,"MEAN_MOTION_DDOT":0},{"OBJECT_NAME":"ONEWEB-0146","OBJECT_ID":"2020-100AL","EPOCH":"2026-01-10T23:31:43.366656","MEAN_MOTION":13.12442187,"ECCENTRICITY":0.00019653,"INCLINATION":87.8927,"RA_OF_ASC_NODE":21.8743,"ARG_OF_PERICENTER":80.9686,"MEAN_ANOMALY":279.1665,"EPHEMERIS_TYPE":0,"CLASSIFICATION_TYPE":"U","NORAD_CAT_ID":47292,"ELEMENT_SET_NO":999,"REV_AT_EPOCH":24405,"BSTAR":-0.0010184224,"MEAN_MOTION_DOT":-3.54e-6,"MEAN_MOTION_DDOT":0},{"OBJECT_NAME":"ONEWEB-0147","OBJECT_ID":"2020-100AM","EPOCH":"2026-01-10T22:42:55.347552","MEAN_MOTION":13.12442043,"ECCENTRICITY":0.00014959,"INCLINATION":87.8928,"RA_OF_ASC_NODE":21.8604,"ARG_OF_PERICENTER":84.2383,"MEAN_ANOMALY":275.8916,"EPHEMERIS_TYPE":0,"CLASSIFICATION_TYPE":"U","NORAD_CAT_ID":47293,"ELEMENT_SET_NO":999,"REV_AT_EPOCH":24394,"BSTAR":0.00080040728,"MEAN_MOTION_DOT":3.01e-6,"MEAN_MOTION_DDOT":0},{"OBJECT_NAME":"ONEWEB-0115","OBJECT_ID":"2021-025A","EPOCH":"2026-01-10T22:41:02.191200","MEAN_MOTION":13.13468704,"ECCENTRICITY":0.00017989,"INCLINATION":87.9004,"RA_OF_ASC_NODE":351.4649,"ARG_OF_PERICENTER":83.7476,"MEAN_ANOMALY":276.3858,"EPHEMERIS_TYPE":0,"CLASSIFICATION_TYPE":"U","NORAD_CAT_ID":48042,"ELEMENT_SET_NO":999,"REV_AT_EPOCH":23295,"BSTAR":5.9146459e-5,"MEAN_MOTION_DOT":3.4e-7,"MEAN_MOTION_DDOT":0},{"OBJECT_NAME":"ONEWEB-0152","OBJECT_ID":"2021-025B","EPOCH":"2026-01-10T23:00:32.442048","MEAN_MOTION":13.13469243,"ECCENTRICITY":0.00018558,"INCLINATION":87.8998,"RA_OF_ASC_NODE":351.4666,"ARG_OF_PERICENTER":80.9578,"MEAN_ANOMALY":279.1762,"EPHEMERIS_TYPE":0,"CLASSIFICATION_TYPE":"U","NORAD_CAT_ID":48043,"ELEMENT_SET_NO":999,"REV_AT_EPOCH":23291,"BSTAR":-0.00076647518,"MEAN_MOTION_DOT":-2.67e-6,"MEAN_MOTION_DDOT":0},{"OBJECT_NAME":"ONEWEB-0153","OBJECT_ID":"2021-025C","EPOCH":"2026-01-10T22:28:51.164256","MEAN_MOTION":13.1347004,"ECCENTRICITY":0.00017081,"INCLINATION":87.8996,"RA_OF_ASC_NODE":351.4777,"ARG_OF_PERICENTER":86.6965,"MEAN_ANOMALY":273.4359,"EPHEMERIS_TYPE":0,"CLASSIFICATION_TYPE":"U","NORAD_CAT_ID":48044,"ELEMENT_SET_NO":999,"REV_AT_EPOCH":23290,"BSTAR":0.00062520988,"MEAN_MOTION_DOT":2.41e-6,"MEAN_MOTION_DDOT":0},{"OBJECT_NAME":"ONEWEB-0154","OBJECT_ID":"2021-025D","EPOCH":"2026-01-10T22:23:58.500672","MEAN_MOTION":13.13469266,"ECCENTRICITY":0.00017079,"INCLINATION":87.8997,"RA_OF_ASC_NODE":351.4749,"ARG_OF_PERICENTER":82.3245,"MEAN_ANOMALY":277.8078,"EPHEMERIS_TYPE":0,"CLASSIFICATION_TYPE":"U","NORAD_CAT_ID":48045,"ELEMENT_SET_NO":999,"REV_AT_EPOCH":23286,"BSTAR":0.0007365962,"MEAN_MOTION_DOT":2.82e-6,"MEAN_MOTION_DDOT":0},{"OBJECT_NAME":"ONEWEB-0116","OBJECT_ID":"2021-025E","EPOCH":"2026-01-10T23:20:02.202144","MEAN_MOTION":13.13469991,"ECCENTRICITY":0.00018435,"INCLINATION":87.9,"RA_OF_ASC_NODE":351.4523,"ARG_OF_PERICENTER":80.5997,"MEAN_ANOMALY":279.534,"EPHEMERIS_TYPE":0,"CLASSIFICATION_TYPE":"U","NORAD_CAT_ID":48046,"ELEMENT_SET_NO":999,"REV_AT_EPOCH":23301,"BSTAR":-0.00087082658,"MEAN_MOTION_DOT":-3.05e-6,"MEAN_MOTION_DDOT":0},{"OBJECT_NAME":"ONEWEB-0150","OBJECT_ID":"2021-025F","EPOCH":"2026-01-10T22:45:54.072000","MEAN_MOTION":13.13470435,"ECCENTRICITY":0.00018976,"INCLINATION":87.9004,"RA_OF_ASC_NODE":351.4534,"ARG_OF_PERICENTER":89.1021,"MEAN_ANOMALY":271.0326,"EPHEMERIS_TYPE":0,"CLASSIFICATION_TYPE":"U","NORAD_CAT_ID":48047,"ELEMENT_SET_NO":999,"REV_AT_EPOCH":23290,"BSTAR":-9.0784471e-5,"MEAN_MOTION_DOT":-2.0e-7,"MEAN_MOTION_DDOT":0},{"OBJECT_NAME":"ONEWEB-0107","OBJECT_ID":"2021-025G","EPOCH":"2026-01-10T22:48:21.330432","MEAN_MOTION":13.13468419,"ECCENTRICITY":0.00016027,"INCLINATION":87.9003,"RA_OF_ASC_NODE":351.4494,"ARG_OF_PERICENTER":92.5225,"MEAN_ANOMALY":267.6087,"EPHEMERIS_TYPE":0,"CLASSIFICATION_TYPE":"U","NORAD_CAT_ID":48048,"ELEMENT_SET_NO":999,"REV_AT_EPOCH":23288,"BSTAR":-0.00017972191,"MEAN_MOTION_DOT":-5.3e-7,"MEAN_MOTION_DDOT":0},{"OBJECT_NAME":"ONEWEB-0101","OBJECT_ID":"2021-025H","EPOCH":"2026-01-10T21:54:43.076448","MEAN_MOTION":13.13470102,"ECCENTRICITY":0.00015838,"INCLINATION":87.8993,"RA_OF_ASC_NODE":351.4876,"ARG_OF_PERICENTER":84.5512,"MEAN_ANOMALY":275.5798,"EPHEMERIS_TYPE":0,"CLASSIFICATION_TYPE":"U","NORAD_CAT_ID":48049,"ELEMENT_SET_NO":999,"REV_AT_EPOCH":23285,"BSTAR":0.00036552486,"MEAN_MOTION_DOT":1.46e-6,"MEAN_MOTION_DDOT":0},{"OBJECT_NAME":"ONEWEB-0113","OBJECT_ID":"2021-025J","EPOCH":"2026-01-10T23:51:21.943008","MEAN_MOTION":13.13986756,"ECCENTRICITY":0.00019766,"INCLINATION":87.9001,"RA_OF_ASC_NODE":351.3969,"ARG_OF_PERICENTER":82.5575,"MEAN_ANOMALY":277.5779,"EPHEMERIS_TYPE":0,"CLASSIFICATION_TYPE":"U","NORAD_CAT_ID":48050,"ELEMENT_SET_NO":999,"REV_AT_EPOCH":23296,"BSTAR":0.00038203196,"MEAN_MOTION_DOT":1.53e-6,"MEAN_MOTION_DDOT":0}]
