ONEWEB-0141             
1 47287U 20100AF  26010.96665706 -.00000324  00000+0 -93470-3 0  9991
2 47287  87.8924  21.8642 0001969  98.0487 262.0865 13.12440430244058
ONEWEB-0142             
1 47288U 20100AG  26010.95508529  .00000043  00000+0  84833-4 0  9990
2 47288  87.8925  21.8906 0001715 104.4698 255.6621 13.12443309244043
ONEWEB-0143             
1 47289U 20100AH  26010.96511953 -.00000318  00000+0 -91961-3 0  9993
2 47289  87.8925  21.8843 0001778  91.0121 269.1211 13.12440995244026
ONEWEB-0144             
1 47290U 20100AJ  26010.93630618  .00000428  00000+0  11556-2 0  9993
2 47290  87.8928  21.8588 0001452  98.6057 261.5236 13.12444253243941
ONEWEB-0145             
1 47291U 20100AK  26010.98373607 -.00000399  00000+0 -11446-2 0  9998
2 47291  87.8931  21.8884 0001693  92.8192 267.3131 13.12443293244142
ONEWEB-0146             
1 47292U 20100AL  26010.98036304 -.00000354  00000+0 -10184-2 0  9998
2 47292  87.8927  21.8743 0001965  80.9686 279.1665 13.12442187244054
ONEWEB-0147             
1 47293U 20100AM  26010.94647393  .00000301  00000+0  80041-3 0  9991
2 47293  87.8928  21.8604 0001495  84.2383 275.8916 13.12442043243941
ONEWEB-0115             
1 48042U 21025A   26010.94516425  .00000034  00000+0  59146-4 0  9998
2 48042  87.9004 351.4649 0001798  83.7476 276.3858 13.13468704232957
ONEWEB-0152             
1 48043U 21025B   26010.95870882 -.00000267  00000+0 -76648-3 0  9995
2 48043  87.8998 351.4666 0001855  80.9578 279.1762 13.13469243232914
ONEWEB-0153             
1 48044U 21025C   26010.93670329  .00000241  00000+0  62521-3 0  9993
2 48044  87.8996 351.4777 0001708  86.6965 273.4359 13.13470040232901
ONEWEB-0154             
1 48045U 21025D   26010.93331598  .00000282  00000+0  73660-3 0  9997
2 48045  87.8997 351.4749 0001707  82.3245 277.8078 13.13469266232864
ONEWEB-0116             
1 48046U 21025E   26010.97224771 -.00000305  00000+0 -87083-3 0  9998
2 48046  87.9000 351.4523 0001843  80.5997 279.5340 13.13469991233010
ONEWEB-0150             
1 48047U 21025F   26010.94854250 -.00000020  00000+0 -90784-4 0  9994
2 48047  87.9004 351.4534 0001897  89.1021 271.0326 13.13470435232902
ONEWEB-0107             
1 48048U 21025G   26010.95024688 -.00000053  00000+0 -17972-3 0  9993
2 48048  87.9003 351.4494 0001602  92.5225 267.6087 13.13468419232886
ONEWEB-0101             
1 48049U 21025H   26010.91299857  .00000146  00000+0  36552-3 0  9998
2 48049  87.8993 351.4876 0001583  84.5512 275.5798 13.13470102232852
ONEWEB-0113             
1 48050U 21025J   26010.99400397  .00000153  00000+0  38203-3 0  9994
2 48050  87.9001 351.3969 0001976  82.5575 277.5779 13.13986756232960
